start=new Date('2022-05-25T00:00:00.000Z').valueOf();
sats=[{"TLE_LINE2":"2 51994  53.2176 122.1792 0001166  88.3716 209.0981 15.61048487 13305","LAUNCH_DATE":"2022-03-09","OBJECT_TYPE":"PAYLOAD","TLE_LINE1":"1 51994U 22025AQ  22144.91667824 -.00712833  00000-0 -90734-2 0  9996","MEAN_MOTION":"15.61048487","RA_OF_ASC_NODE":"122.1792","GP_ID":"204431147","CLASSIFICATION_TYPE":"U","NORAD_CAT_ID":"51994","APOAPSIS":"385.418","OBJECT_NAME":"STARLINK-3647","ELEMENT_SET_NO":"999","RCS_SIZE":"LARGE","MEAN_ELEMENT_THEORY":"SGP4","PERIOD":"92.246","INCLINATION":"53.2176","DECAY_DATE":null,"SITE":"AFETR","COUNTRY_CODE":"US","CENTER_NAME":"EARTH","MEAN_ANOMALY":"209.0981","SEMIMAJOR_AXIS":"6762.764","BSTAR":"-0.00907340000000","TIME_SYSTEM":"UTC","ECCENTRICITY":"0.00011660","MEAN_MOTION_DDOT":"0.0000000000000","REV_AT_EPOCH":"1330","EPHEMERIS_TYPE":"0","OBJECT_ID":"2022-025AQ","EPOCH":"2022-05-24T22:00:00.999936","PERIAPSIS":"383.841","FILE":"3462622","ARG_OF_PERICENTER":"88.3716","MEAN_MOTION_DOT":"-0.00712833","REF_FRAME":"TEME"},{"APOAPSIS":"385.466","NORAD_CAT_ID":"51995","CLASSIFICATION_TYPE":"U","DECAY_DATE":null,"INCLINATION":"53.2176","MEAN_ELEMENT_THEORY":"SGP4","PERIOD":"92.246","RCS_SIZE":"LARGE","ELEMENT_SET_NO":"999","OBJECT_NAME":"STARLINK-3636","LAUNCH_DATE":"2022-03-09","OBJECT_TYPE":"PAYLOAD","TLE_LINE2":"2 51995  53.2176 122.1603 0001181  97.6594 197.5329 15.61035411  1308","GP_ID":"204457843","RA_OF_ASC_NODE":"122.1603","MEAN_MOTION":"15.61035411","TLE_LINE1":"1 51995U 22025AR  22144.91667824 -.00712857  00000-0 -90783-2 0  9997","PERIAPSIS":"383.868","EPOCH":"2022-05-24T22:00:00.999936","OBJECT_ID":"2022-025AR","EPHEMERIS_TYPE":"0","REV_AT_EPOCH":"130","MEAN_MOTION_DDOT":"0.0000000000000","ECCENTRICITY":"0.00011810","REF_FRAME":"TEME","ARG_OF_PERICENTER":"97.6594","MEAN_MOTION_DOT":"-0.00712857","FILE":"3462783","COUNTRY_CODE":"US","SITE":"AFETR","TIME_SYSTEM":"UTC","BSTAR":"-0.00907830000000","SEMIMAJOR_AXIS":"6762.802","MEAN_ANOMALY":"197.5329","CENTER_NAME":"EARTH"},{"EPOCH":"2022-05-24T22:00:00.999936","OBJECT_ID":"2022-025AS","EPHEMERIS_TYPE":"0","PERIAPSIS":"383.836","MEAN_MOTION_DDOT":"0.0000000000000","ECCENTRICITY":"0.00011550","REV_AT_EPOCH":"1329","REF_FRAME":"TEME","FILE":"3462420","ARG_OF_PERICENTER":"95.7305","MEAN_MOTION_DOT":"-0.00712783","SITE":"AFETR","COUNTRY_CODE":"US","BSTAR":"-0.00907120000000","TIME_SYSTEM":"UTC","MEAN_ANOMALY":"202.4983","CENTER_NAME":"EARTH","SEMIMAJOR_AXIS":"6762.752","NORAD_CAT_ID":"51996","APOAPSIS":"385.398","CLASSIFICATION_TYPE":"U","PERIOD":"92.245","MEAN_ELEMENT_THEORY":"SGP4","RCS_SIZE":"LARGE","DECAY_DATE":null,"INCLINATION":"53.2176","OBJECT_NAME":"STARLINK-3538","ELEMENT_SET_NO":"999","TLE_LINE2":"2 51996  53.2176 122.1855 0001155  95.7305 202.4983 15.61052836 13291","LAUNCH_DATE":"2022-03-09","OBJECT_TYPE":"PAYLOAD","TLE_LINE1":"1 51996U 22025AS  22144.91667824 -.00712783  00000-0 -90712-2 0  9998","MEAN_MOTION":"15.61052836","GP_ID":"204425866","RA_OF_ASC_NODE":"122.1855"},{"MEAN_MOTION_DDOT":"0.0000000000000","ECCENTRICITY":"0.00011670","REV_AT_EPOCH":"130","OBJECT_ID":"2022-025AT","EPOCH":"2022-05-24T22:00:00.999936","EPHEMERIS_TYPE":"0","PERIAPSIS":"383.865","FILE":"3462783","ARG_OF_PERICENTER":"97.2571","MEAN_MOTION_DOT":"-0.00712879","REF_FRAME":"TEME","SITE":"AFETR","COUNTRY_CODE":"US","MEAN_ANOMALY":"198.6944","CENTER_NAME":"EARTH","SEMIMAJOR_AXIS":"6762.789","BSTAR":"-0.00907710000000","TIME_SYSTEM":"UTC","CLASSIFICATION_TYPE":"U","NORAD_CAT_ID":"51997","APOAPSIS":"385.444","OBJECT_NAME":"STARLINK-3589","ELEMENT_SET_NO":"999","PERIOD":"92.246","MEAN_ELEMENT_THEORY":"SGP4","RCS_SIZE":"LARGE","INCLINATION":"53.2176","DECAY_DATE":null,"TLE_LINE2":"2 51997  53.2176 122.1666 0001167  97.2571 198.6944 15.61039783  1305","OBJECT_TYPE":"PAYLOAD","LAUNCH_DATE":"2022-03-09","MEAN_MOTION":"15.61039783","TLE_LINE1":"1 51997U 22025AT  22144.91667824 -.00712879  00000-0 -90771-2 0  9990","GP_ID":"204458370","RA_OF_ASC_NODE":"122.1666"},{"COUNTRY_CODE":"US","SITE":"AFETR","TIME_SYSTEM":"UTC","BSTAR":"-0.00906890000000","SEMIMAJOR_AXIS":"6762.724","CENTER_NAME":"EARTH","MEAN_ANOMALY":"216.2825","PERIAPSIS":"383.804","EPHEMERIS_TYPE":"0","OBJECT_ID":"2022-025AU","EPOCH":"2022-05-24T22:00:00.999936","REV_AT_EPOCH":"130","ECCENTRICITY":"0.00011600","MEAN_MOTION_DDOT":"0.0000000000000","REF_FRAME":"TEME","MEAN_MOTION_DOT":"-0.00712864","ARG_OF_PERICENTER":"83.4631","FILE":"3462783","OBJECT_TYPE":"PAYLOAD","LAUNCH_DATE":"2022-03-09","TLE_LINE2":"2 51998  53.2177 122.2445 0001160  83.4631 216.2825 15.61062523  1303","RA_OF_ASC_NODE":"122.2445","GP_ID":"204457630","MEAN_MOTION":"15.61062523","TLE_LINE1":"1 51998U 22025AU  22144.91667824 -.00712864  00000-0 -90689-2 0  9993","APOAPSIS":"385.373","NORAD_CAT_ID":"51998","CLASSIFICATION_TYPE":"U","DECAY_DATE":null,"INCLINATION":"53.2177","RCS_SIZE":"LARGE","PERIOD":"92.245","MEAN_ELEMENT_THEORY":"SGP4","ELEMENT_SET_NO":"999","OBJECT_NAME":"STARLINK-3618"},{"OBJECT_NAME":"STARLINK-3667","ELEMENT_SET_NO":"999","PERIOD":"92.245","MEAN_ELEMENT_THEORY":"SGP4","RCS_SIZE":"LARGE","INCLINATION":"53.2176","DECAY_DATE":null,"CLASSIFICATION_TYPE":"U","NORAD_CAT_ID":"51999","APOAPSIS":"385.421","TLE_LINE1":"1 51999U 22025AV  22144.91667824 -.00712794  00000-0 -90697-2 0  9995","MEAN_MOTION":"15.61057140","GP_ID":"204458175","RA_OF_ASC_NODE":"122.1895","TLE_LINE2":"2 51999  53.2176 122.1895 0001208 105.6363 193.3516 15.61057140  1304","OBJECT_TYPE":"PAYLOAD","LAUNCH_DATE":"2022-03-09","FILE":"3462783","ARG_OF_PERICENTER":"105.6363","MEAN_MOTION_DOT":"-0.00712794","REF_FRAME":"TEME","MEAN_MOTION_DDOT":"0.0000000000000","ECCENTRICITY":"0.00012080","REV_AT_EPOCH":"130","OBJECT_ID":"2022-025AV","EPOCH":"2022-05-24T22:00:00.999936","EPHEMERIS_TYPE":"0","PERIAPSIS":"383.787","MEAN_ANOMALY":"193.3516","CENTER_NAME":"EARTH","SEMIMAJOR_AXIS":"6762.739","BSTAR":"-0.00906970000000","TIME_SYSTEM":"UTC","SITE":"AFETR","COUNTRY_CODE":"US"},{"BSTAR":"-0.00906500000000","TIME_SYSTEM":"UTC","CENTER_NAME":"EARTH","MEAN_ANOMALY":"211.3658","SEMIMAJOR_AXIS":"6762.699","SITE":"AFETR","COUNTRY_CODE":"US","REF_FRAME":"TEME","FILE":"3462783","MEAN_MOTION_DOT":"-0.00712799","ARG_OF_PERICENTER":"89.8977","EPHEMERIS_TYPE":"0","OBJECT_ID":"2022-025AW","EPOCH":"2022-05-24T22:00:00.999936","PERIAPSIS":"383.789","ECCENTRICITY":"0.00011450","MEAN_MOTION_DDOT":"0.0000000000000","REV_AT_EPOCH":"130","TLE_LINE1":"1 52000U 22025AW  22144.91667824 -.00712799  00000-0 -90650-2 0  9993","MEAN_MOTION":"15.61071166","RA_OF_ASC_NODE":"122.2549","GP_ID":"204457737","TLE_LINE2":"2 52000  53.2177 122.2549 0001145  89.8977 211.3658 15.61071166  1302","OBJECT_TYPE":"PAYLOAD","LAUNCH_DATE":"2022-03-09","RCS_SIZE":"LARGE","PERIOD":"92.244","MEAN_ELEMENT_THEORY":"SGP4","INCLINATION":"53.2177","DECAY_DATE":null,"OBJECT_NAME":"STARLINK-3653","ELEMENT_SET_NO":"999","NORAD_CAT_ID":"52000","APOAPSIS":"385.338","CLASSIFICATION_TYPE":"U"},{"TIME_SYSTEM":"UTC","BSTAR":"-0.00906560000000","SEMIMAJOR_AXIS":"6762.711","CENTER_NAME":"EARTH","MEAN_ANOMALY":"209.3314","COUNTRY_CODE":"US","SITE":"AFETR","REF_FRAME":"TEME","ARG_OF_PERICENTER":"91.1731","MEAN_MOTION_DOT":"-0.00712733","FILE":"3462783","PERIAPSIS":"383.799","EPHEMERIS_TYPE":"0","OBJECT_ID":"2022-025AX","EPOCH":"2022-05-24T22:00:00.999936","REV_AT_EPOCH":"130","ECCENTRICITY":"0.00011490","MEAN_MOTION_DDOT":"0.0000000000000","RA_OF_ASC_NODE":"122.2505","GP_ID":"204458277","TLE_LINE1":"1 52001U 22025AX  22144.91667824 -.00712733  00000-0 -90656-2 0  9998","MEAN_MOTION":"15.61066826","LAUNCH_DATE":"2022-03-09","OBJECT_TYPE":"PAYLOAD","TLE_LINE2":"2 52001  53.2177 122.2505 0001149  91.1731 209.3314 15.61066826  1306","DECAY_DATE":null,"INCLINATION":"53.2177","RCS_SIZE":"LARGE","PERIOD":"92.245","MEAN_ELEMENT_THEORY":"SGP4","ELEMENT_SET_NO":"999","OBJECT_NAME":"STARLINK-3659","APOAPSIS":"385.353","NORAD_CAT_ID":"52001","CLASSIFICATION_TYPE":"U"},{"SEMIMAJOR_AXIS":"6762.686","MEAN_ANOMALY":"225.9500","CENTER_NAME":"EARTH","TIME_SYSTEM":"UTC","BSTAR":"-0.00906310000000","COUNTRY_CODE":"US","SITE":"AFETR","ARG_OF_PERICENTER":"76.0725","MEAN_MOTION_DOT":"-0.00712774","FILE":"3462783","REF_FRAME":"TEME","REV_AT_EPOCH":"130","MEAN_MOTION_DDOT":"0.0000000000000","ECCENTRICITY":"0.00011620","PERIAPSIS":"383.766","OBJECT_ID":"2022-025AY","EPOCH":"2022-05-24T22:00:00.999936","EPHEMERIS_TYPE":"0","GP_ID":"204457962","RA_OF_ASC_NODE":"122.2555","TLE_LINE1":"1 52002U 22025AY  22144.91667824 -.00712774  00000-0 -90631-2 0  9997","MEAN_MOTION":"15.61075425","LAUNCH_DATE":"2022-03-09","OBJECT_TYPE":"PAYLOAD","TLE_LINE2":"2 52002  53.2177 122.2555 0001162  76.0725 225.9500 15.61075425  1308","ELEMENT_SET_NO":"999","OBJECT_NAME":"STARLINK-3668","DECAY_DATE":null,"INCLINATION":"53.2177","PERIOD":"92.244","MEAN_ELEMENT_THEORY":"SGP4","RCS_SIZE":"LARGE","CLASSIFICATION_TYPE":"U","APOAPSIS":"385.337","NORAD_CAT_ID":"52002"},{"MEAN_ANOMALY":"197.1522","CENTER_NAME":"EARTH","SEMIMAJOR_AXIS":"6762.674","BSTAR":"-0.00906210000000","TIME_SYSTEM":"UTC","SITE":"AFETR","COUNTRY_CODE":"US","FILE":"3462783","MEAN_MOTION_DOT":"-0.00712818","ARG_OF_PERICENTER":"105.6291","REF_FRAME":"TEME","MEAN_MOTION_DDOT":"0.0000000000000","ECCENTRICITY":"0.00011920","REV_AT_EPOCH":"130","EPOCH":"2022-05-24T22:00:00.999936","OBJECT_ID":"2022-025AZ","EPHEMERIS_TYPE":"0","PERIAPSIS":"383.733","TLE_LINE1":"1 52003U 22025AZ  22144.91667824 -.00712818  00000-0 -90621-2 0  9996","MEAN_MOTION":"15.61079778","GP_ID":"204457844","RA_OF_ASC_NODE":"122.2614","TLE_LINE2":"2 52003  53.2177 122.2614 0001192 105.6291 197.1522 15.61079778  1304","OBJECT_TYPE":"PAYLOAD","LAUNCH_DATE":"2022-03-09","OBJECT_NAME":"STARLINK-3654","ELEMENT_SET_NO":"999","MEAN_ELEMENT_THEORY":"SGP4","PERIOD":"92.244","RCS_SIZE":"LARGE","DECAY_DATE":null,"INCLINATION":"53.2177","CLASSIFICATION_TYPE":"U","NORAD_CAT_ID":"52003","APOAPSIS":"385.345"}];
